SL-16 R/B               
1 25400U 98043G   26055.82152890  .00000066  00000+0  46528-4 0  9998
2 25400  98.8231   9.0957 0010752  55.2481 304.9709 14.26046407437150
SL-16 R/B               
1 25407U 98045B   26055.50605661 -.00000093  00000+0 -22730-4 0  9992
2 25407  71.0105 209.2968 0006038  29.5832 330.5631 14.16191329425230
ISS (ZARYA)             
1 25544U 98067A   26055.54083190  .00010485  00000+0  20315-3 0  9999
2 25544  51.6319 137.3540 0008351 128.7945 231.3790 15.48264633554295
CZ-4B R/B               
1 25732U 99025C   26055.56405685  .00000038  00000+0  39091-4 0  9997
2 25732  98.6656 100.1549 0037470  24.3523 142.0500 14.18262458386304
OKEAN-O                 
1 25860U 99039A   26055.60634576  .00000661  00000+0  93632-4 0  9995
2 25860  97.9473 115.6289 0001616  76.0976 284.0416 14.80311830432455
SL-16 R/B               
1 25861U 99039B   26055.59855360  .00000564  00000+0  78337-4 0  9997
2 25861  97.9996 114.7128 0013595 302.8678  57.1225 14.81710999434927
DELTA 2 R/B             
1 25876U 99041E   26055.84057244  .00001642  00000+0  30191-3 0  9992
2 25876  51.7659 352.5959 0502248 310.4917  45.3254 14.11787317361213
HELIOS 1B               
1 25977U 99064A   26055.79987972  .00001692  00000+0  19247-3 0  9997
2 25977  98.1709 317.6636 0002460  92.2043 267.9454 14.87637801683346
TERRA                   
1 25994U 99068A   26055.77221137  .00000439  00000+0  98616-4 0  9998
2 25994  97.9622 109.6986 0001789 185.7149 240.6223 14.60999113393192
SL-16 R/B               
1 26070U 00006B   26055.58870326  .00000246  00000+0  14921-3 0  9999
2 26070  71.0019 125.3857 0017601 208.2016 151.8155 14.15820058346700
TITAN 4B R/B            
1 26474U 00047B   26055.77562791  .00003274  00000+0  20926-3 0  9993
2 26474  67.9884  76.8218 0037781  50.9301 309.5199 15.09427951390969
ENVISAT                 
1 27386U 02009A   26055.87968343  .00000128  00000+0  55327-4 0  9999
2 27386  98.3705   9.7838 0001371  86.1101 293.0758 14.39031501257335
